QIANFAN-73              
1 63159U 25046A   25354.23401866  .00000102  00000+0  13880-3 0  9995
2 63159  88.9767 319.2468 0016838  99.7910 260.5144 13.50978759 48429
QIANFAN-74              
1 63160U 25046B   25354.14333742  .00000063  00000+0  78199-4 0  9995
2 63160  88.9768 319.1449 0002031  75.3642 284.7735 13.50975510 48473
QIANFAN-75              
1 63161U 25046C   25354.20469041  .00000130  00000+0  18270-3 0  9993
2 63161  88.9769 319.3722 0017929 102.6178 257.6980 13.50980730 48359
QIANFAN-76              
1 63162U 25046D   25354.12727546  .00000076  00000+0  99494-4 0  9999
2 63162  88.9768 319.3609 0015462 102.9459 257.3420 13.50978148 48354
QIANFAN-77              
1 63163U 25046E   25354.21139791  .00000291  00000+0  20203-3 0  9999
2 63163  88.9770 317.2979 0016915  60.4926 299.7935 13.96093302 49493
QIANFAN-78              
1 63164U 25046F   25354.16815639  .00000108  00000+0  14875-3 0  9991
2 63164  88.9767 319.2205 0016803 105.0792 255.2219 13.50979082 48430
QIANFAN-79              
1 63165U 25046G   25354.19680881  .00000107  00000+0  14672-3 0  9998
2 63165  88.9771 319.3254 0016526 103.4286 256.8708 13.50980751 48382
QIANFAN-80              
1 63166U 25046H   25354.21333840  .00000115  00000+0  15852-3 0  9992
2 63166  88.9769 319.0303 0015438 106.9426 253.3419 13.50978722 48541
